[{"OBJECT_NAME":"STARLINK-32144","OBJECT_ID":"2024-131Q","EPOCH":"2026-03-09T09:29:05.864928","MEAN_MOTION":15.30191179,"ECCENTRICITY":0.00011415,"INCLINATION":53.1601,"RA_OF_ASC_NODE":53.7883,"ARG_OF_PERICENTER":96.8101,"MEAN_ANOMALY":263.303,"EPHEMERIS_TYPE":0,"CLASSIFICATION_TYPE":"U","NORAD_CAT_ID":60269,"ELEMENT_SET_NO":999,"REV_AT_EPOCH":9172,"BSTAR":-1.0181405e-5,"MEAN_MOTION_DOT":-6.6e-6,"MEAN_MOTION_DDOT":0},{"OBJECT_NAME":"TEVEL2-1","OBJECT_ID":"2025-052H","EPOCH":"2026-03-09T15:32:51.927072","MEAN_MOTION":15.30341923,"ECCENTRICITY":0.0004767,"INCLINATION":97.3991,"RA_OF_ASC_NODE":324.7682,"ARG_OF_PERICENTER":104.8919,"MEAN_ANOMALY":255.2849,"EPHEMERIS_TYPE":0,"CLASSIFICATION_TYPE":"U","NORAD_CAT_ID":63217,"ELEMENT_SET_NO":999,"REV_AT_EPOCH":5485,"BSTAR":0.000706,"MEAN_MOTION_DOT":0.00020683,"MEAN_MOTION_DDOT":0}]
